[
    {
        "Altitude(m)": 607895.7847164437,
        "Argument of Periapsis(deg)": 0.0,
        "Eccentricity": 0.0,
        "Inclination(deg)": 60.0,
        "Latitude(deg)": 40.998251105133754,
        "Longitude(deg)": -109.91130992315469,
        "Mean Anomaly(deg)": 130.90910000000005,
        "RAAN(deg)": 200.0,
        "Satellite Name": "Test1 888",
        "Satellite Number": 888,
        "Semi-Major Axis(m)": 6980739.136638005,
        "Time(s)": 0
    },
    {
        "Altitude(m)": 607795.0974767848,
        "Argument of Periapsis(deg)": 0.00010418945913296404,
        "Eccentricity": 0.0,
        "Inclination(deg)": 60.0,
        "Latitude(deg)": 40.53057491176315,
        "Longitude(deg)": -109.41471746927535,
        "Mean Anomaly(deg)": 131.5292061454618,
        "RAAN(deg)": 199.99957995086027,
        "Satellite Name": "Test1 888",
        "Satellite Number": 888,
        "Semi-Major Axis(m)": 6980739.136638005,
        "Time(s)": 10
    },
    {
        "Altitude(m)": 607694.5858019681,
        "Argument of Periapsis(deg)": 0.0002083789182659281,
        "Eccentricity": 0.0,
        "Inclination(deg)": 60.0,
        "Latitude(deg)": 40.06038878050038,
        "Longitude(deg)": -108.92556584962243,
        "Mean Anomaly(deg)": 132.14931229092366,
        "RAAN(deg)": 199.9991599017205,
        "Satellite Name": "Test1 888",
        "Satellite Number": 888,
        "Semi-Major Axis(m)": 6980739.136638005,
        "Time(s)": 20
    },
    {
        "Altitude(m)": 607594.3133907655,
        "Argument of Periapsis(deg)": 0.00031256837739889213,
        "Eccentricity": 0.0,
        "Inclination(deg)": 60.0,
        "Latitude(deg)": 39.587766284653995,
        "Longitude(deg)": -108.44366945914503,
        "Mean Anomaly(deg)": 132.76941843638545,
        "RAAN(deg)": 199.99873985258077,
        "Satellite Name": "Test1 888",
        "Satellite Number": 888,
        "Semi-Major Axis(m)": 6980739.136638005,
        "Time(s)": 30
    },
    {
        "Altitude(m)": 607494.3440422812,
        "Argument of Periapsis(deg)": 0.0004167578365318562,
        "Eccentricity": 0.0,
        "Inclination(deg)": 60.0,
        "Latitude(deg)": 39.11277875738654,
        "Longitude(deg)": -107.96884573270992,
        "Mean Anomaly(deg)": 133.38952458184727,
        "RAAN(deg)": 199.99831980344103,
        "Satellite Name": "Test1 888",
        "Satellite Number": 888,
        "Semi-Major Axis(m)": 6980739.136638005,
        "Time(s)": 40
    },
    {
        "Altitude(m)": 607394.7416240788,
        "Argument of Periapsis(deg)": 0.0005209472956648203,
        "Eccentricity": 0.0,
        "Inclination(deg)": 60.0,
        "Latitude(deg)": 38.63549536507562,
        "Longitude(deg)": -107.50091616554514,
        "Mean Anomaly(deg)": 134.00963072730914,
        "RAAN(deg)": 199.9978997543013,
        "Satellite Name": "Test1 888",
        "Satellite Number": 888,
        "Semi-Major Axis(m)": 6980739.136638005,
        "Time(s)": 50
    },
    {
        "Altitude(m)": 607295.5700401722,
        "Argument of Periapsis(deg)": 0.0006251367547977843,
        "Eccentricity": 0.0,
        "Inclination(deg)": 60.0,
        "Latitude(deg)": 38.15598317913367,
        "Longitude(deg)": -107.03970580999417,
        "Mean Anomaly(deg)": 134.62973687277096,
        "RAAN(deg)": 199.99747970516154,
        "Satellite Name": "Test1 888",
        "Satellite Number": 888,
        "Semi-Major Axis(m)": 6980739.136638005,
        "Time(s)": 60
    },
    {
        "Altitude(m)": 607196.8931989539,
        "Argument of Periapsis(deg)": 0.0007293262139307483,
        "Eccentricity": 0.0,
        "Inclination(deg)": 60.0,
        "Latitude(deg)": 37.67430724622005,
        "Longitude(deg)": -106.58504276258628,
        "Mean Anomaly(deg)": 135.2498430182328,
        "RAAN(deg)": 199.9970596560218,
        "Satellite Name": "Test1 888",
        "Satellite Number": 888,
        "Semi-Major Axis(m)": 6980739.136638005,
        "Time(s)": 70
    },
    {
        "Altitude(m)": 607098.7749810852,
        "Argument of Periapsis(deg)": 0.0008335156730637124,
        "Eccentricity": 0.0,
        "Inclination(deg)": 60.0,
        "Latitude(deg)": 37.19053065679392,
        "Longitude(deg)": -106.1367591553394,
        "Mean Anomaly(deg)": 135.86994916369466,
        "RAAN(deg)": 199.99663960688207,
        "Satellite Name": "Test1 888",
        "Satellite Number": 888,
        "Semi-Major Axis(m)": 6980739.136638005,
        "Time(s)": 80
    },
    {
        "Altitude(m)": 607001.2792073357,
        "Argument of Periapsis(deg)": 0.0009377051321966765,
        "Eccentricity": 0.0,
        "Inclination(deg)": 60.0,
        "Latitude(deg)": 36.704714611965734,
        "Longitude(deg)": -105.69469062651449,
        "Mean Anomaly(deg)": 136.4900553091565,
        "RAAN(deg)": 199.99621955774234,
        "Satellite Name": "Test1 888",
        "Satellite Number": 888,
        "Semi-Major Axis(m)": 6980739.136638005,
        "Time(s)": 90
    },
    {
        "Altitude(m)": 606904.4696063928,
        "Argument of Periapsis(deg)": 0.0010418945913296407,
        "Eccentricity": 0.0,
        "Inclination(deg)": 60.0,
        "Latitude(deg)": 36.21691848862098,
        "Longitude(deg)": -105.25867578457492,
        "Mean Anomaly(deg)": 137.11016145461832,
        "RAAN(deg)": 199.99579950860257,
        "Satellite Name": "Test1 888",
        "Satellite Number": 888,
        "Semi-Major Axis(m)": 6980739.136638005,
        "Time(s)": 100
    },
    {
        "Altitude(m)": 606808.4097826724,
        "Argument of Periapsis(deg)": 0.0011460840504626045,
        "Eccentricity": 0.0,
        "Inclination(deg)": 60.0,
        "Latitude(deg)": 35.7271999028001,
        "Longitude(deg)": -104.8285571790328,
        "Mean Anomaly(deg)": 137.73026760008014,
        "RAAN(deg)": 199.99537945946284,
        "Satellite Name": "Test1 888",
        "Satellite Number": 888,
        "Semi-Major Axis(m)": 6980739.136638005,
        "Time(s)": 110
    },
    {
        "Altitude(m)": 606713.1631841334,
        "Argument of Periapsis(deg)": 0.0012502735095955685,
        "Eccentricity": 0.0,
        "Inclination(deg)": 60.0,
        "Latitude(deg)": 35.23561477132362,
        "Longitude(deg)": -104.40418075317713,
        "Mean Anomaly(deg)": 138.35037374554196,
        "RAAN(deg)": 199.9949594103231,
        "Satellite Name": "Test1 888",
        "Satellite Number": 888,
        "Semi-Major Axis(m)": 6980739.136638005,
        "Time(s)": 120
    },
    {
        "Altitude(m)": 606618.7930700993,
        "Argument of Periapsis(deg)": 0.0013544629687285324,
        "Eccentricity": 0.0,
        "Inclination(deg)": 60.0,
        "Latitude(deg)": 34.742217371664744,
        "Longitude(deg)": -103.98539529223446,
        "Mean Anomaly(deg)": 138.97047989100378,
        "RAAN(deg)": 199.9945393611833,
        "Satellite Name": "Test1 888",
        "Satellite Number": 888,
        "Semi-Major Axis(m)": 6980739.136638005,
        "Time(s)": 130
    },
    {
        "Altitude(m)": 606525.3624791475,
        "Argument of Periapsis(deg)": 0.0014586524278614966,
        "Eccentricity": 0.0,
        "Inclination(deg)": 60.0,
        "Latitude(deg)": 34.247060400075924,
        "Longitude(deg)": -103.57205338044547,
        "Mean Anomaly(deg)": 139.59058603646565,
        "RAAN(deg)": 199.9941193120436,
        "Satellite Name": "Test1 888",
        "Satellite Number": 888,
        "Semi-Major Axis(m)": 6980739.136638005,
        "Time(s)": 140
    },
    {
        "Altitude(m)": 606432.9341970166,
        "Argument of Periapsis(deg)": 0.0015628418869944607,
        "Eccentricity": 0.0,
        "Inclination(deg)": 60.0,
        "Latitude(deg)": 33.75019502798193,
        "Longitude(deg)": -103.16401084187916,
        "Mean Anomaly(deg)": 140.21069218192744,
        "RAAN(deg)": 199.99369926290387,
        "Satellite Name": "Test1 888",
        "Satellite Number": 888,
        "Semi-Major Axis(m)": 6980739.136638005,
        "Time(s)": 150
    },
    {
        "Altitude(m)": 606341.5707246149,
        "Argument of Periapsis(deg)": 0.0016670313461274247,
        "Eccentricity": 0.0,
        "Inclination(deg)": 60.0,
        "Latitude(deg)": 33.2516709566575,
        "Longitude(deg)": -102.76112617836154,
        "Mean Anomaly(deg)": 140.8307983273893,
        "RAAN(deg)": 199.9932792137641,
        "Satellite Name": "Test1 888",
        "Satellite Number": 888,
        "Semi-Major Axis(m)": 6980739.136638005,
        "Time(s)": 160
    },
    {
        "Altitude(m)": 606251.3342460971,
        "Argument of Periapsis(deg)": 0.0017712208052603888,
        "Eccentricity": 0.0,
        "Inclination(deg)": 60.0,
        "Latitude(deg)": 32.75153647021445,
        "Longitude(deg)": -102.36326151785428,
        "Mean Anomaly(deg)": 141.45090447285114,
        "RAAN(deg)": 199.99285916462435,
        "Satellite Name": "Test1 888",
        "Satellite Number": 888,
        "Semi-Major Axis(m)": 6980739.136638005,
        "Time(s)": 170
    },
    {
        "Altitude(m)": 606162.2865970394,
        "Argument of Periapsis(deg)": 0.001875410264393353,
        "Eccentricity": 0.0,
        "Inclination(deg)": 60.0,
        "Latitude(deg)": 32.24983848692238,
        "Longitude(deg)": -101.97028204795582,
        "Mean Anomaly(deg)": 142.07101061831295,
        "RAAN(deg)": 199.99243911548464,
        "Satellite Name": "Test1 888",
        "Satellite Number": 888,
        "Semi-Major Axis(m)": 6980739.136638005,
        "Time(s)": 180
    },
    {
        "Altitude(m)": 606074.4892327366,
        "Argument of Periapsis(deg)": 0.0019795997235263173,
        "Eccentricity": 0.0,
        "Inclination(deg)": 60.0,
        "Latitude(deg)": 31.746622608894484,
        "Longitude(deg)": -101.58205544777393,
        "Mean Anomaly(deg)": 142.6911167637748,
        "RAAN(deg)": 199.9920190663449,
        "Satellite Name": "Test1 888",
        "Satellite Number": 888,
        "Semi-Major Axis(m)": 6980739.136638005,
        "Time(s)": 190
    }
]